STARLINK-1266_new
1 15383C 20019Z   21326.16199559 -.00017706  00000-0 -11866-2 0  3265
2 15383  53.0527 348.0130 0001409  58.5206 227.8164 15.06407347    14
STARLINK-1266_old
1 25383C 20019Z   21325.11822359 -.00001482  00000-0 -99275-4 0  3255
2 25383  53.0532 352.6990 0001461  60.0302 322.7288 15.06406900    14
